[{"OBJECT_NAME":"STARLINK-4465","OBJECT_ID":"2022-099AH","EPOCH":"2026-03-26T12:00:01.999296","MEAN_MOTION":15.96929887,"ECCENTRICITY":0.0003719,"INCLINATION":97.6361,"RA_OF_ASC_NODE":234.3852,"ARG_OF_PERICENTER":328.6192,"MEAN_ANOMALY":80.5932,"EPHEMERIS_TYPE":0,"CLASSIFICATION_TYPE":"U","NORAD_CAT_ID":53496,"ELEMENT_SET_NO":999,"REV_AT_EPOCH":598,"BSTAR":0.00046545,"MEAN_MOTION_DOT":0.00198346,"MEAN_MOTION_DDOT":1.7807e-5},{"OBJECT_NAME":"STARLINK-4461","OBJECT_ID":"2022-099AQ","EPOCH":"2026-03-26T16:19:53.472864","MEAN_MOTION":16.10475764,"ECCENTRICITY":0.0001957,"INCLINATION":97.6357,"RA_OF_ASC_NODE":235.4288,"ARG_OF_PERICENTER":303.8613,"MEAN_ANOMALY":56.2484,"EPHEMERIS_TYPE":0,"CLASSIFICATION_TYPE":"U","NORAD_CAT_ID":53503,"ELEMENT_SET_NO":999,"REV_AT_EPOCH":20027,"BSTAR":0.00073052,"MEAN_MOTION_DOT":0.00696262,"MEAN_MOTION_DDOT":0.00026592},{"OBJECT_NAME":"STARLINK-4469","OBJECT_ID":"2022-105K","EPOCH":"2026-03-26T12:33:15.869376","MEAN_MOTION":16.06699306,"ECCENTRICITY":0.0002885,"INCLINATION":97.6278,"RA_OF_ASC_NODE":353.4467,"ARG_OF_PERICENTER":84.8632,"MEAN_ANOMALY":275.2978,"EPHEMERIS_TYPE":0,"CLASSIFICATION_TYPE":"U","NORAD_CAT_ID":53657,"ELEMENT_SET_NO":999,"REV_AT_EPOCH":19738,"BSTAR":0.00072034,"MEAN_MOTION_DOT":0.00541229,"MEAN_MOTION_DDOT":0.00014508},{"OBJECT_NAME":"STARLINK-5024","OBJECT_ID":"2022-119R","EPOCH":"2026-03-26T15:54:50.244192","MEAN_MOTION":15.9820211,"ECCENTRICITY":0.0009012,"INCLINATION":53.1979,"RA_OF_ASC_NODE":156.1862,"ARG_OF_PERICENTER":14.949,"MEAN_ANOMALY":345.1806,"EPHEMERIS_TYPE":0,"CLASSIFICATION_TYPE":"U","NORAD_CAT_ID":53901,"ELEMENT_SET_NO":999,"REV_AT_EPOCH":19554,"BSTAR":0.001381,"MEAN_MOTION_DOT":0.00653969,"MEAN_MOTION_DDOT":0.00019803},{"OBJECT_NAME":"CZ-6A DEB","OBJECT_ID":"2022-151UX","EPOCH":"2026-03-26T04:39:21.456576","MEAN_MOTION":15.96585507,"ECCENTRICITY":0.00147654,"INCLINATION":98.5982,"RA_OF_ASC_NODE":177.1309,"ARG_OF_PERICENTER":303.8682,"MEAN_ANOMALY":56.1185,"EPHEMERIS_TYPE":0,"CLASSIFICATION_TYPE":"U","NORAD_CAT_ID":55007,"ELEMENT_SET_NO":999,"REV_AT_EPOCH":17872,"BSTAR":0.018493862,"MEAN_MOTION_DOT":0.05633903,"MEAN_MOTION_DDOT":0.064537806},{"OBJECT_NAME":"STARLINK-6256","OBJECT_ID":"2023-061AD","EPOCH":"2026-03-26T12:00:01.999296","MEAN_MOTION":15.96579728,"ECCENTRICITY":0.0013632,"INCLINATION":42.9901,"RA_OF_ASC_NODE":2.4129,"ARG_OF_PERICENTER":209.9866,"MEAN_ANOMALY":315.945,"EPHEMERIS_TYPE":0,"CLASSIFICATION_TYPE":"U","NORAD_CAT_ID":56401,"ELEMENT_SET_NO":999,"REV_AT_EPOCH":600,"BSTAR":0.00064526,"MEAN_MOTION_DOT":0.0028432,"MEAN_MOTION_DDOT":4.0227e-5},{"OBJECT_NAME":"OBJECT AF","OBJECT_ID":"2023-085AF","EPOCH":"2026-03-26T12:10:57.459936","MEAN_MOTION":16.16074865,"ECCENTRICITY":0.001706,"INCLINATION":97.4756,"RA_OF_ASC_NODE":218.0926,"ARG_OF_PERICENTER":293.0449,"MEAN_ANOMALY":66.9038,"EPHEMERIS_TYPE":0,"CLASSIFICATION_TYPE":"U","NORAD_CAT_ID":57033,"ELEMENT_SET_NO":999,"REV_AT_EPOCH":15547,"BSTAR":0.0011718,"MEAN_MOTION_DOT":0.01689906,"MEAN_MOTION_DDOT":2.4629e-6},{"OBJECT_NAME":"SHIYAN-25 (SY-25)","OBJECT_ID":"2023-087A","EPOCH":"2026-03-26T06:44:33.756864","MEAN_MOTION":16.00941032,"ECCENTRICITY":0.0015721,"INCLINATION":96.7429,"RA_OF_ASC_NODE":146.5268,"ARG_OF_PERICENTER":233.9058,"MEAN_ANOMALY":126.0767,"EPHEMERIS_TYPE":0,"CLASSIFICATION_TYPE":"U","NORAD_CAT_ID":57047,"ELEMENT_SET_NO":999,"REV_AT_EPOCH":16154,"BSTAR":-0.00010241,"MEAN_MOTION_DOT":-0.00056187,"MEAN_MOTION_DDOT":3.1619e-6},{"OBJECT_NAME":"QIANKUN-1","OBJECT_ID":"2023-103B","EPOCH":"2026-03-26T07:45:59.503968","MEAN_MOTION":16.07722652,"ECCENTRICITY":0.0049762,"INCLINATION":96.1835,"RA_OF_ASC_NODE":135.7822,"ARG_OF_PERICENTER":147.3074,"MEAN_ANOMALY":213.1309,"EPHEMERIS_TYPE":0,"CLASSIFICATION_TYPE":"U","NORAD_CAT_ID":57422,"ELEMENT_SET_NO":999,"REV_AT_EPOCH":15398,"BSTAR":1.3604e-5,"MEAN_MOTION_DOT":0.00012515,"MEAN_MOTION_DDOT":1.6586e-6},{"OBJECT_NAME":"OBJECT B","OBJECT_ID":"2023-104B","EPOCH":"2026-03-26T16:19:41.311200","MEAN_MOTION":16.22575029,"ECCENTRICITY":0.0011909,"INCLINATION":97.2634,"RA_OF_ASC_NODE":176.1172,"ARG_OF_PERICENTER":274.3305,"MEAN_ANOMALY":85.6625,"EPHEMERIS_TYPE":0,"CLASSIFICATION_TYPE":"U","NORAD_CAT_ID":57425,"ELEMENT_SET_NO":999,"REV_AT_EPOCH":15080,"BSTAR":0.00090073,"MEAN_MOTION_DOT":0.02097486,"MEAN_MOTION_DDOT":2.3675e-6},{"OBJECT_NAME":"STARLINK-31023","OBJECT_ID":"2023-191Q","EPOCH":"2026-03-26T16:27:10.188576","MEAN_MOTION":15.97009927,"ECCENTRICITY":0.0002888,"INCLINATION":42.9991,"RA_OF_ASC_NODE":0.1677,"ARG_OF_PERICENTER":250.6566,"MEAN_ANOMALY":109.3999,"EPHEMERIS_TYPE":0,"CLASSIFICATION_TYPE":"U","NORAD_CAT_ID":58522,"ELEMENT_SET_NO":999,"REV_AT_EPOCH":12815,"BSTAR":0.0035652,"MEAN_MOTION_DOT":0.01575235,"MEAN_MOTION_DDOT":0.0013428},{"OBJECT_NAME":"OBJECT G","OBJECT_ID":"2024-024G","EPOCH":"2026-03-26T11:55:21.448128","MEAN_MOTION":15.91829875,"ECCENTRICITY":0.0002676,"INCLINATION":97.3198,"RA_OF_ASC_NODE":179.7941,"ARG_OF_PERICENTER":295.9953,"MEAN_ANOMALY":64.1045,"EPHEMERIS_TYPE":0,"CLASSIFICATION_TYPE":"U","NORAD_CAT_ID":58923,"ELEMENT_SET_NO":999,"REV_AT_EPOCH":12043,"BSTAR":0.00084555,"MEAN_MOTION_DOT":0.00275273,"MEAN_MOTION_DDOT":3.0346e-5},{"OBJECT_NAME":"STARLINK-31299","OBJECT_ID":"2024-041G","EPOCH":"2026-03-26T15:53:36.132000","MEAN_MOTION":16.10488291,"ECCENTRICITY":0.0016939,"INCLINATION":42.974,"RA_OF_ASC_NODE":84.8442,"ARG_OF_PERICENTER":131.0202,"MEAN_ANOMALY":229.2147,"EPHEMERIS_TYPE":0,"CLASSIFICATION_TYPE":"U","NORAD_CAT_ID":59080,"ELEMENT_SET_NO":999,"REV_AT_EPOCH":11839,"BSTAR":0.0028425,"MEAN_MOTION_DOT":0.02587275,"MEAN_MOTION_DDOT":0.0083773},{"OBJECT_NAME":"STARLINK-31867","OBJECT_ID":"2024-120E","EPOCH":"2026-03-26T17:02:42.690912","MEAN_MOTION":16.02738039,"ECCENTRICITY":0.0012315,"INCLINATION":53.1331,"RA_OF_ASC_NODE":216.1447,"ARG_OF_PERICENTER":299.9835,"MEAN_ANOMALY":59.9974,"EPHEMERIS_TYPE":0,"CLASSIFICATION_TYPE":"U","NORAD_CAT_ID":60139,"ELEMENT_SET_NO":999,"REV_AT_EPOCH":9932,"BSTAR":0.0011493,"MEAN_MOTION_DOT":0.00710213,"MEAN_MOTION_DDOT":0.00025047},{"OBJECT_NAME":"OBJECT C","OBJECT_ID":"2024-125C","EPOCH":"2026-03-26T09:45:37.176192","MEAN_MOTION":15.95617112,"ECCENTRICITY":0.0004663,"INCLINATION":97.2222,"RA_OF_ASC_NODE":308.9204,"ARG_OF_PERICENTER":142.033,"MEAN_ANOMALY":218.1276,"EPHEMERIS_TYPE":0,"CLASSIFICATION_TYPE":"U","NORAD_CAT_ID":60205,"ELEMENT_SET_NO":999,"REV_AT_EPOCH":9718,"BSTAR":0.001215,"MEAN_MOTION_DOT":0.00482938,"MEAN_MOTION_DDOT":9.6945e-5},{"OBJECT_NAME":"FLOCK 4BE-8","OBJECT_ID":"2024-149AZ","EPOCH":"2026-03-26T12:09:14.880672","MEAN_MOTION":15.96733723,"ECCENTRICITY":0.0008081,"INCLINATION":97.3577,"RA_OF_ASC_NODE":173.6335,"ARG_OF_PERICENTER":265.915,"MEAN_ANOMALY":94.1203,"EPHEMERIS_TYPE":0,"CLASSIFICATION_TYPE":"U","NORAD_CAT_ID":60515,"ELEMENT_SET_NO":999,"REV_AT_EPOCH":8992,"BSTAR":0.0020537,"MEAN_MOTION_DOT":0.00866482,"MEAN_MOTION_DDOT":0.00034105}]
