STARLINK-4465           
1 53496U 22099AH  26085.50002314  .00198346  17807-4  46545-3 0  9990
2 53496  97.6361 234.3852 0003719 328.6192  80.5932 15.96929887  5982
STARLINK-4461           
1 53503U 22099AQ  26085.68048001  .00696262  26592-3  73052-3 0  9994
2 53503  97.6357 235.4288 0001957 303.8613  56.2484 16.10475764200274
STARLINK-4469           
1 53657U 22105K   26085.52310034  .00541229  14508-3  72034-3 0  9998
2 53657  97.6278 353.4467 0002885  84.8632 275.2978 16.06699306197387
STARLINK-5024           
1 53901U 22119R   26085.66308153  .00653969  19803-3  13810-2 0  9993
2 53901  53.1979 156.1862 0009012  14.9490 345.1806 15.98202110195542
CZ-6A DEB               
1 55007U 22151UX  26085.19399834  .05633903  64538-1  18494-1 0  9998
2 55007  98.5982 177.1309 0014765 303.8682  56.1185 15.96585507178723
STARLINK-6256           
1 56401U 23061AD  26085.50002314  .00284320  40227-4  64526-3 0  9998
2 56401  42.9901   2.4129 0013632 209.9866 315.9450 15.96579728  6008
OBJECT AF               
1 57033U 23085AF  26085.50760949  .01689906  24629-5  11718-2 0  9994
2 57033  97.4756 218.0926 0017060 293.0449  66.9038 16.16074865155479
SHIYAN-25 (SY-25)       
1 57047U 23087A   26085.28094626 -.00056187  31619-5 -10241-3 0  9996
2 57047  96.7429 146.5268 0015721 233.9058 126.0767 16.00941032161542
QIANKUN-1               
1 57422U 23103B   26085.32360537  .00012515  16586-5  13604-4 0  9992
2 57422  96.1835 135.7822 0049762 147.3074 213.1309 16.07722652153989
OBJECT B                
1 57425U 23104B   26085.68033925  .02097486  23675-5  90073-3 0  9996
2 57425  97.2634 176.1172 0011909 274.3305  85.6625 16.22575029150800
STARLINK-31023          
1 58522U 23191Q   26085.68553459  .01575235  13428-2  35652-2 0  9995
2 58522  42.9991   0.1677 0002888 250.6566 109.3999 15.97009927128151
OBJECT G                
1 58923U 24024G   26085.49677602  .00275273  30346-4  84555-3 0  9997
2 58923  97.3198 179.7941 0002676 295.9953  64.1045 15.91829875120432
STARLINK-31299          
1 59080U 24041G   26085.66222375  .02587275  83773-2  28425-2 0  9996
2 59080  42.9740  84.8442 0016939 131.0202 229.2147 16.10488291118396
STARLINK-31867          
1 60139U 24120E   26085.71021633  .00710213  25047-3  11493-2 0  9997
2 60139  53.1331 216.1447 0012315 299.9835  59.9974 16.02738039 99324
OBJECT C                
1 60205U 24125C   26085.40668028  .00482938  96945-4  12150-2 0  9994
2 60205  97.2222 308.9204 0004663 142.0330 218.1276 15.95617112 97187
FLOCK 4BE-8             
1 60515U 24149AZ  26085.50642223  .00866482  34105-3  20537-2 0  9991
2 60515  97.3577 173.6335 0008081 265.9150  94.1203 15.96733723 89923
